<?xml version="1.0" encoding="UTF-8"?>
<gpx version="1.1" creator="StrideTrack">
  <metadata>
    <time>2026-06-20T15:48:03.658Z</time>
  </metadata>
  <trk>
    <name>Тренировка</name>
    <trkseg>
      <trkpt lat="53.430611459459456" lon="83.94234675675676">
        <ele>111.69999694824219</ele>
        <time>2026-06-20T15:48:03.658Z</time>
      </trkpt>
      <trkpt lat="53.430571359719195" lon="83.94234370061874">
        <ele>111.9000015258789</ele>
        <time>2026-06-20T15:48:14.659Z</time>
      </trkpt>
      <trkpt lat="53.4305008714583" lon="83.94237775291869">
        <ele>111.9000015258789</ele>
        <time>2026-06-20T15:48:19.581Z</time>
      </trkpt>
      <trkpt lat="53.43040986297943" lon="83.94242171836741">
        <ele>111.69999694824219</ele>
        <time>2026-06-20T15:48:24.626Z</time>
      </trkpt>
      <trkpt lat="53.43033052897311" lon="83.94246004397434">
        <ele>111.9000015258789</ele>
        <time>2026-06-20T15:48:29.640Z</time>
      </trkpt>
      <trkpt lat="53.430219875" lon="83.9425135">
        <ele>111.9000015258789</ele>
        <time>2026-06-20T15:48:38.648Z</time>
      </trkpt>
      <trkpt lat="53.4301029182766" lon="83.94257000083256">
        <ele>111.9000015258789</ele>
        <time>2026-06-20T15:48:43.536Z</time>
      </trkpt>
      <trkpt lat="53.430040621260574" lon="83.94260009600939">
        <ele>111.9000015258789</ele>
        <time>2026-06-20T15:48:48.674Z</time>
      </trkpt>
      <trkpt lat="53.429954519815055" lon="83.94264177608983">
        <ele>111.9000015258789</ele>
        <time>2026-06-20T15:48:53.686Z</time>
      </trkpt>
      <trkpt lat="53.429869585865255" lon="83.94268302972259">
        <ele>110.30000305175781</ele>
        <time>2026-06-20T15:48:58.679Z</time>
      </trkpt>
      <trkpt lat="53.4297895135403" lon="83.94272192199472">
        <ele>110.30000305175781</ele>
        <time>2026-06-20T15:49:03.216Z</time>
      </trkpt>
      <trkpt lat="53.42970307463672" lon="83.94276390660502">
        <ele>110.30000305175781</ele>
        <time>2026-06-20T15:49:08.376Z</time>
      </trkpt>
      <trkpt lat="53.42965609090909" lon="83.94278672727273">
        <ele>110.30000305175781</ele>
        <time>2026-06-20T15:49:13.555Z</time>
      </trkpt>
      <trkpt lat="53.429614053500664" lon="83.94280714544254">
        <ele>110.30000305175781</ele>
        <time>2026-06-20T15:49:18.274Z</time>
      </trkpt>
      <trkpt lat="53.42952399900925" lon="83.9428508861955">
        <ele>110.30000305175781</ele>
        <time>2026-06-20T15:49:22.901Z</time>
      </trkpt>
      <trkpt lat="53.429430768163805" lon="83.942896169749">
        <ele>110.30000305175781</ele>
        <time>2026-06-20T15:49:27.562Z</time>
      </trkpt>
      <trkpt lat="53.42935097324967" lon="83.94293492727873">
        <ele>110.30000305175781</ele>
        <time>2026-06-20T15:49:32.219Z</time>
      </trkpt>
      <trkpt lat="53.42929521598414" lon="83.94296200937913">
        <ele>110.30000305175781</ele>
        <time>2026-06-20T15:49:36.886Z</time>
      </trkpt>
      <trkpt lat="53.42924296103038" lon="83.94298739035668">
        <ele>110.30000305175781</ele>
        <time>2026-06-20T15:49:41.555Z</time>
      </trkpt>
      <trkpt lat="53.42918303104359" lon="83.9430164992074">
        <ele>111.9000015258789</ele>
        <time>2026-06-20T15:49:46.535Z</time>
      </trkpt>
      <trkpt lat="53.42913011261559" lon="83.94304220244385">
        <ele>108.19999694824219</ele>
        <time>2026-06-20T15:49:51.625Z</time>
      </trkpt>
      <trkpt lat="53.429077" lon="83.943068">
        <ele>108.19999694824219</ele>
        <time>2026-06-20T15:49:56.178Z</time>
      </trkpt>
      <trkpt lat="53.42905652631579" lon="83.94292878947368">
        <ele>108.19999694824219</ele>
        <time>2026-06-20T15:50:11.626Z</time>
      </trkpt>
      <trkpt lat="53.42880240050038" lon="83.94302906602141">
        <ele>108.19999694824219</ele>
        <time>2026-06-20T15:50:16.619Z</time>
      </trkpt>
      <trkpt lat="53.42876409716462" lon="83.94293930846801">
        <ele>108.19999694824219</ele>
        <time>2026-06-20T15:50:21.611Z</time>
      </trkpt>
      <trkpt lat="53.42873192109303" lon="83.9428319015397">
        <ele>108.19999694824219</ele>
        <time>2026-06-20T15:50:26.238Z</time>
      </trkpt>
      <trkpt lat="53.428995105263155" lon="83.94251115789473">
        <ele>108.19999694824219</ele>
        <time>2026-06-20T15:50:31.959Z</time>
      </trkpt>
      <trkpt lat="53.428974631578946" lon="83.94237194736841">
        <ele>110.5</ele>
        <time>2026-06-20T15:50:38.701Z</time>
      </trkpt>
      <trkpt lat="53.42895415789474" lon="83.9422327368421">
        <ele>110.5</ele>
        <time>2026-06-20T15:50:43.615Z</time>
      </trkpt>
      <trkpt lat="53.42893368421053" lon="83.94209352631579">
        <ele>110.5</ele>
        <time>2026-06-20T15:50:48.606Z</time>
      </trkpt>
      <trkpt lat="53.42891321052632" lon="83.94195431578947">
        <ele>110.5</ele>
        <time>2026-06-20T15:50:53.123Z</time>
      </trkpt>
      <trkpt lat="53.42889273684211" lon="83.94181510526316">
        <ele>110.5</ele>
        <time>2026-06-20T15:50:58.206Z</time>
      </trkpt>
      <trkpt lat="53.42887226315789" lon="83.94167589473683">
        <ele>110.5</ele>
        <time>2026-06-20T15:51:03.328Z</time>
      </trkpt>
      <trkpt lat="53.42858215742097" lon="83.94189263238681">
        <ele>110.5</ele>
        <time>2026-06-20T15:51:07.932Z</time>
      </trkpt>
      <trkpt lat="53.428564720658464" lon="83.94178785062363">
        <ele>105.80000305175781</ele>
        <time>2026-06-20T15:51:12.572Z</time>
      </trkpt>
      <trkpt lat="53.42883131578947" lon="83.9413974736842">
        <ele>105.80000305175781</ele>
        <time>2026-06-20T15:51:18.286Z</time>
      </trkpt>
      <trkpt lat="53.428810842105264" lon="83.94125826315789">
        <ele>105.80000305175781</ele>
        <time>2026-06-20T15:51:23.427Z</time>
      </trkpt>
      <trkpt lat="53.428790368421055" lon="83.94111905263158">
        <ele>129.10000610351562</ele>
        <time>2026-06-20T15:51:28.086Z</time>
      </trkpt>
      <trkpt lat="53.428431" lon="83.940605">
        <ele>112.5999984741211</ele>
        <time>2026-06-20T15:51:37.368Z</time>
      </trkpt>
    </trkseg>
  </trk>
</gpx>