<?xml version="1.0" encoding="UTF-8"?>
<gpx version="1.1" creator="StrideTrack">
  <metadata>
    <time>2026-06-07T17:21:28.453Z</time>
  </metadata>
  <trk>
    <name>Тренировка</name>
    <trkseg>
      <trkpt lat="53.3616648" lon="83.7714611">
        <ele>157.20001220703125</ele>
        <time>2026-06-07T17:21:28.453Z</time>
      </trkpt>
      <trkpt lat="53.361647" lon="83.7713375">
        <ele>157.20001220703125</ele>
        <time>2026-06-07T17:21:46.777Z</time>
      </trkpt>
      <trkpt lat="53.3617073" lon="83.7714581">
        <ele>157.20001220703125</ele>
        <time>2026-06-07T17:22:31.991Z</time>
      </trkpt>
      <trkpt lat="53.3616787" lon="83.7714">
        <ele>157.20001220703125</ele>
        <time>2026-06-07T17:27:37.053Z</time>
      </trkpt>
      <trkpt lat="53.3616639" lon="83.7715283">
        <ele>157.20001220703125</ele>
        <time>2026-06-07T17:27:45.752Z</time>
      </trkpt>
      <trkpt lat="53.3617365" lon="83.7715163">
        <ele>157.20001220703125</ele>
        <time>2026-06-07T17:28:21.982Z</time>
      </trkpt>
      <trkpt lat="53.361777" lon="83.7714148">
        <ele>157.20001220703125</ele>
        <time>2026-06-07T17:28:29.477Z</time>
      </trkpt>
      <trkpt lat="53.3617342" lon="83.7713171">
        <ele>157.20001220703125</ele>
        <time>2026-06-07T17:28:35.593Z</time>
      </trkpt>
      <trkpt lat="53.3619246" lon="83.771041">
        <ele>156.70001220703125</ele>
        <time>2026-06-07T17:32:07.987Z</time>
      </trkpt>
      <trkpt lat="53.3619396" lon="83.7692314">
        <ele>162.8000030517578</ele>
        <time>2026-06-07T17:33:50.922Z</time>
      </trkpt>
      <trkpt lat="53.3619237" lon="83.7691044">
        <ele>157.40000915527344</ele>
        <time>2026-06-07T17:33:59.142Z</time>
      </trkpt>
      <trkpt lat="53.3619519" lon="83.7689917">
        <ele>157.40000915527344</ele>
        <time>2026-06-07T17:34:05.181Z</time>
      </trkpt>
      <trkpt lat="53.3619701" lon="83.7688707">
        <ele>156.60000610351562</ele>
        <time>2026-06-07T17:34:16.928Z</time>
      </trkpt>
      <trkpt lat="53.3620149" lon="83.7687734">
        <ele>156.60000610351562</ele>
        <time>2026-06-07T17:34:21.906Z</time>
      </trkpt>
      <trkpt lat="53.3620456" lon="83.7686634">
        <ele>157.40000915527344</ele>
        <time>2026-06-07T17:34:28.689Z</time>
      </trkpt>
      <trkpt lat="53.3620431" lon="83.7685373">
        <ele>156.60000610351562</ele>
        <time>2026-06-07T17:34:34.347Z</time>
      </trkpt>
      <trkpt lat="53.3620185" lon="83.7684138">
        <ele>156.60000610351562</ele>
        <time>2026-06-07T17:34:39.669Z</time>
      </trkpt>
    </trkseg>
  </trk>
</gpx>