<?xml version="1.0" encoding="UTF-8"?>
<gpx version="1.1" creator="StrideTrack">
  <metadata>
    <time>2026-06-19T11:24:26.539Z</time>
  </metadata>
  <trk>
    <name>Тренировка</name>
    <trkseg>
      <trkpt lat="53.3795783" lon="83.9414167">
        <ele>106.50000000000001</ele>
        <time>2026-06-19T11:24:26.539Z</time>
      </trkpt>
      <trkpt lat="53.378885" lon="83.9410183">
        <ele>105.60000000000001</ele>
        <time>2026-06-19T11:24:31.539Z</time>
      </trkpt>
      <trkpt lat="53.3782383" lon="83.9405617">
        <ele>105.39999999999999</ele>
        <time>2026-06-19T11:24:36.538Z</time>
      </trkpt>
      <trkpt lat="53.377715" lon="83.93972">
        <ele>106.3</ele>
        <time>2026-06-19T11:24:41.539Z</time>
      </trkpt>
      <trkpt lat="53.3773733" lon="83.938605">
        <ele>106.00000000000001</ele>
        <time>2026-06-19T11:24:46.539Z</time>
      </trkpt>
      <trkpt lat="53.3769383" lon="83.9374283">
        <ele>105.50000000000001</ele>
        <time>2026-06-19T11:24:51.537Z</time>
      </trkpt>
      <trkpt lat="53.3763367" lon="83.9363917">
        <ele>105.2</ele>
        <time>2026-06-19T11:24:56.538Z</time>
      </trkpt>
      <trkpt lat="53.37574" lon="83.93553">
        <ele>108.00000000000001</ele>
        <time>2026-06-19T11:25:01.538Z</time>
      </trkpt>
      <trkpt lat="53.3751217" lon="83.9349217">
        <ele>107.3</ele>
        <time>2026-06-19T11:25:06.538Z</time>
      </trkpt>
      <trkpt lat="53.3746167" lon="83.9345533">
        <ele>103.50000000000001</ele>
        <time>2026-06-19T11:25:11.537Z</time>
      </trkpt>
      <trkpt lat="53.3743367" lon="83.9340783">
        <ele>100.7</ele>
        <time>2026-06-19T11:25:16.537Z</time>
      </trkpt>
      <trkpt lat="53.374335" lon="83.9333517">
        <ele>98.00000000000001</ele>
        <time>2026-06-19T11:25:21.537Z</time>
      </trkpt>
      <trkpt lat="53.3744083" lon="83.9323733">
        <ele>96.3</ele>
        <time>2026-06-19T11:25:26.537Z</time>
      </trkpt>
      <trkpt lat="53.3744933" lon="83.9314033">
        <ele>94.7</ele>
        <time>2026-06-19T11:25:31.537Z</time>
      </trkpt>
      <trkpt lat="53.3745867" lon="83.930375">
        <ele>93.50000000000001</ele>
        <time>2026-06-19T11:25:36.538Z</time>
      </trkpt>
      <trkpt lat="53.3746733" lon="83.9293583">
        <ele>92.39999999999999</ele>
        <time>2026-06-19T11:25:41.538Z</time>
      </trkpt>
      <trkpt lat="53.3747667" lon="83.9284367">
        <ele>91.60000000000001</ele>
        <time>2026-06-19T11:25:46.537Z</time>
      </trkpt>
      <trkpt lat="53.374825" lon="83.9275667">
        <ele>91.10000000000001</ele>
        <time>2026-06-19T11:25:51.536Z</time>
      </trkpt>
      <trkpt lat="53.374875" lon="83.9267083">
        <ele>91.3</ele>
        <time>2026-06-19T11:25:56.538Z</time>
      </trkpt>
      <trkpt lat="53.3749567" lon="83.92584">
        <ele>93.3</ele>
        <time>2026-06-19T11:26:01.538Z</time>
      </trkpt>
      <trkpt lat="53.37505" lon="83.9248317">
        <ele>95.39999999999999</ele>
        <time>2026-06-19T11:26:06.538Z</time>
      </trkpt>
      <trkpt lat="53.3751217" lon="83.92373">
        <ele>96.89999999999999</ele>
        <time>2026-06-19T11:26:11.538Z</time>
      </trkpt>
      <trkpt lat="53.375095" lon="83.9225317">
        <ele>99.7</ele>
        <time>2026-06-19T11:26:16.537Z</time>
      </trkpt>
      <trkpt lat="53.3749833" lon="83.921395">
        <ele>99.8</ele>
        <time>2026-06-19T11:26:21.538Z</time>
      </trkpt>
      <trkpt lat="53.3747567" lon="83.92023">
        <ele>102.00000000000001</ele>
        <time>2026-06-19T11:26:26.538Z</time>
      </trkpt>
      <trkpt lat="53.37451" lon="83.919025">
        <ele>104.2</ele>
        <time>2026-06-19T11:26:31.538Z</time>
      </trkpt>
      <trkpt lat="53.3742567" lon="83.917775">
        <ele>101.60000000000001</ele>
        <time>2026-06-19T11:26:36.538Z</time>
      </trkpt>
      <trkpt lat="53.3740767" lon="83.9164733">
        <ele>100.7</ele>
        <time>2026-06-19T11:26:41.538Z</time>
      </trkpt>
      <trkpt lat="53.37404" lon="83.915105">
        <ele>99.89999999999999</ele>
        <time>2026-06-19T11:26:46.538Z</time>
      </trkpt>
      <trkpt lat="53.3741333" lon="83.91363">
        <ele>97.89999999999999</ele>
        <time>2026-06-19T11:26:51.538Z</time>
      </trkpt>
      <trkpt lat="53.37433" lon="83.9122283">
        <ele>98.3</ele>
        <time>2026-06-19T11:26:56.538Z</time>
      </trkpt>
      <trkpt lat="53.374625" lon="83.9109867">
        <ele>99.3</ele>
        <time>2026-06-19T11:27:01.538Z</time>
      </trkpt>
      <trkpt lat="53.3748883" lon="83.9096967">
        <ele>99.89999999999999</ele>
        <time>2026-06-19T11:27:06.538Z</time>
      </trkpt>
      <trkpt lat="53.3751867" lon="83.908405">
        <ele>97.39999999999999</ele>
        <time>2026-06-19T11:27:11.538Z</time>
      </trkpt>
      <trkpt lat="53.375405" lon="83.907135">
        <ele>96.2</ele>
        <time>2026-06-19T11:27:16.538Z</time>
      </trkpt>
      <trkpt lat="53.3755183" lon="83.905815">
        <ele>95.8</ele>
        <time>2026-06-19T11:27:21.538Z</time>
      </trkpt>
      <trkpt lat="53.3754183" lon="83.904405">
        <ele>101.60000000000001</ele>
        <time>2026-06-19T11:27:26.538Z</time>
      </trkpt>
      <trkpt lat="53.3753383" lon="83.9030233">
        <ele>104.8</ele>
        <time>2026-06-19T11:27:31.538Z</time>
      </trkpt>
      <trkpt lat="53.3752833" lon="83.9017083">
        <ele>104.10000000000001</ele>
        <time>2026-06-19T11:27:36.538Z</time>
      </trkpt>
      <trkpt lat="53.3751017" lon="83.90043">
        <ele>103.2</ele>
        <time>2026-06-19T11:27:41.538Z</time>
      </trkpt>
      <trkpt lat="53.3749167" lon="83.89917">
        <ele>104.2</ele>
        <time>2026-06-19T11:27:46.537Z</time>
      </trkpt>
      <trkpt lat="53.3747433" lon="83.89789">
        <ele>104.00000000000001</ele>
        <time>2026-06-19T11:27:51.538Z</time>
      </trkpt>
      <trkpt lat="53.3745367" lon="83.8965667">
        <ele>102.00000000000001</ele>
        <time>2026-06-19T11:27:56.538Z</time>
      </trkpt>
      <trkpt lat="53.3743467" lon="83.8951517">
        <ele>100.2</ele>
        <time>2026-06-19T11:28:01.538Z</time>
      </trkpt>
      <trkpt lat="53.3742133" lon="83.89372">
        <ele>97.3</ele>
        <time>2026-06-19T11:28:06.539Z</time>
      </trkpt>
      <trkpt lat="53.3740567" lon="83.892285">
        <ele>95.39999999999999</ele>
        <time>2026-06-19T11:28:11.538Z</time>
      </trkpt>
      <trkpt lat="53.373865" lon="83.8908917">
        <ele>95.2</ele>
        <time>2026-06-19T11:28:16.538Z</time>
      </trkpt>
      <trkpt lat="53.37365" lon="83.8894967">
        <ele>96.8</ele>
        <time>2026-06-19T11:28:21.539Z</time>
      </trkpt>
      <trkpt lat="53.3734367" lon="83.8881233">
        <ele>97.2</ele>
        <time>2026-06-19T11:28:26.538Z</time>
      </trkpt>
      <trkpt lat="53.3732317" lon="83.88676">
        <ele>97.50000000000001</ele>
        <time>2026-06-19T11:28:31.539Z</time>
      </trkpt>
      <trkpt lat="53.3730317" lon="83.8854517">
        <ele>99.89999999999999</ele>
        <time>2026-06-19T11:28:36.539Z</time>
      </trkpt>
      <trkpt lat="53.3728317" lon="83.8841683">
        <ele>102.39999999999999</ele>
        <time>2026-06-19T11:28:41.539Z</time>
      </trkpt>
      <trkpt lat="53.3726133" lon="83.8828983">
        <ele>102.00000000000001</ele>
        <time>2026-06-19T11:28:46.539Z</time>
      </trkpt>
      <trkpt lat="53.3724383" lon="83.881695">
        <ele>100.3</ele>
        <time>2026-06-19T11:28:51.537Z</time>
      </trkpt>
      <trkpt lat="53.3722717" lon="83.8805">
        <ele>99.7</ele>
        <time>2026-06-19T11:28:56.537Z</time>
      </trkpt>
      <trkpt lat="53.3720883" lon="83.8793583">
        <ele>98.8</ele>
        <time>2026-06-19T11:29:01.537Z</time>
      </trkpt>
      <trkpt lat="53.3718983" lon="83.8782583">
        <ele>99.00000000000001</ele>
        <time>2026-06-19T11:29:06.538Z</time>
      </trkpt>
      <trkpt lat="53.3717417" lon="83.87723">
        <ele>99.50000000000001</ele>
        <time>2026-06-19T11:29:11.538Z</time>
      </trkpt>
      <trkpt lat="53.371595" lon="83.8762333">
        <ele>99.50000000000001</ele>
        <time>2026-06-19T11:29:16.537Z</time>
      </trkpt>
      <trkpt lat="53.371465" lon="83.8753133">
        <ele>100.60000000000001</ele>
        <time>2026-06-19T11:29:21.537Z</time>
      </trkpt>
      <trkpt lat="53.3713483" lon="83.8745433">
        <ele>102.00000000000001</ele>
        <time>2026-06-19T11:29:26.537Z</time>
      </trkpt>
      <trkpt lat="53.3712417" lon="83.873885">
        <ele>102.60000000000001</ele>
        <time>2026-06-19T11:29:31.537Z</time>
      </trkpt>
      <trkpt lat="53.3710883" lon="83.8730567">
        <ele>104.00000000000001</ele>
        <time>2026-06-19T11:29:36.538Z</time>
      </trkpt>
      <trkpt lat="53.37091" lon="83.8719517">
        <ele>103.8</ele>
        <time>2026-06-19T11:29:41.537Z</time>
      </trkpt>
      <trkpt lat="53.3707083" lon="83.870735">
        <ele>104.10000000000001</ele>
        <time>2026-06-19T11:29:46.537Z</time>
      </trkpt>
      <trkpt lat="53.3704967" lon="83.8693967">
        <ele>105.10000000000001</ele>
        <time>2026-06-19T11:29:51.536Z</time>
      </trkpt>
      <trkpt lat="53.3702633" lon="83.86795">
        <ele>106.7</ele>
        <time>2026-06-19T11:29:56.538Z</time>
      </trkpt>
      <trkpt lat="53.3700517" lon="83.8665467">
        <ele>108.10000000000001</ele>
        <time>2026-06-19T11:30:01.537Z</time>
      </trkpt>
      <trkpt lat="53.369845" lon="83.8651417">
        <ele>107.8</ele>
        <time>2026-06-19T11:30:06.537Z</time>
      </trkpt>
      <trkpt lat="53.369695" lon="83.8637117">
        <ele>111.2</ele>
        <time>2026-06-19T11:30:11.538Z</time>
      </trkpt>
      <trkpt lat="53.3694583" lon="83.8622783">
        <ele>110.7</ele>
        <time>2026-06-19T11:30:16.537Z</time>
      </trkpt>
      <trkpt lat="53.3692133" lon="83.86079">
        <ele>109.89999999999999</ele>
        <time>2026-06-19T11:30:21.538Z</time>
      </trkpt>
      <trkpt lat="53.3689883" lon="83.8593483">
        <ele>105.00000000000001</ele>
        <time>2026-06-19T11:30:26.537Z</time>
      </trkpt>
      <trkpt lat="53.3688117" lon="83.85794">
        <ele>99.8</ele>
        <time>2026-06-19T11:30:31.538Z</time>
      </trkpt>
      <trkpt lat="53.3685817" lon="83.8565317">
        <ele>98.3</ele>
        <time>2026-06-19T11:30:36.538Z</time>
      </trkpt>
      <trkpt lat="53.3683517" lon="83.8551467">
        <ele>96.50000000000001</ele>
        <time>2026-06-19T11:30:41.538Z</time>
      </trkpt>
      <trkpt lat="53.368125" lon="83.8537367">
        <ele>95.50000000000001</ele>
        <time>2026-06-19T11:30:46.537Z</time>
      </trkpt>
      <trkpt lat="53.3679267" lon="83.8523883">
        <ele>97.39999999999999</ele>
        <time>2026-06-19T11:30:51.537Z</time>
      </trkpt>
      <trkpt lat="53.3676967" lon="83.8511017">
        <ele>96.8</ele>
        <time>2026-06-19T11:30:56.539Z</time>
      </trkpt>
      <trkpt lat="53.3675033" lon="83.8498833">
        <ele>97.39999999999999</ele>
        <time>2026-06-19T11:31:01.538Z</time>
      </trkpt>
      <trkpt lat="53.3673467" lon="83.8485883">
        <ele>102.39999999999999</ele>
        <time>2026-06-19T11:31:06.538Z</time>
      </trkpt>
      <trkpt lat="53.3672167" lon="83.84713">
        <ele>105.00000000000001</ele>
        <time>2026-06-19T11:31:11.538Z</time>
      </trkpt>
      <trkpt lat="53.36708" lon="83.8455983">
        <ele>107.60000000000001</ele>
        <time>2026-06-19T11:31:16.537Z</time>
      </trkpt>
      <trkpt lat="53.366945" lon="83.8440133">
        <ele>109.60000000000001</ele>
        <time>2026-06-19T11:31:21.536Z</time>
      </trkpt>
      <trkpt lat="53.3668967" lon="83.8424583">
        <ele>108.60000000000001</ele>
        <time>2026-06-19T11:31:26.538Z</time>
      </trkpt>
      <trkpt lat="53.3669267" lon="83.8409817">
        <ele>108.60000000000001</ele>
        <time>2026-06-19T11:31:31.538Z</time>
      </trkpt>
      <trkpt lat="53.3669783" lon="83.8394867">
        <ele>109.39999999999999</ele>
        <time>2026-06-19T11:31:36.538Z</time>
      </trkpt>
      <trkpt lat="53.3671133" lon="83.838015">
        <ele>107.8</ele>
        <time>2026-06-19T11:31:41.538Z</time>
      </trkpt>
      <trkpt lat="53.367275" lon="83.8366667">
        <ele>101.50000000000001</ele>
        <time>2026-06-19T11:31:46.537Z</time>
      </trkpt>
      <trkpt lat="53.367465" lon="83.8353867">
        <ele>98.3</ele>
        <time>2026-06-19T11:31:51.536Z</time>
      </trkpt>
      <trkpt lat="53.3676533" lon="83.8340833">
        <ele>95.3</ele>
        <time>2026-06-19T11:31:56.538Z</time>
      </trkpt>
      <trkpt lat="53.3678667" lon="83.8328383">
        <ele>93.89999999999999</ele>
        <time>2026-06-19T11:32:01.539Z</time>
      </trkpt>
      <trkpt lat="53.3680833" lon="83.8316733">
        <ele>94.39999999999999</ele>
        <time>2026-06-19T11:32:06.537Z</time>
      </trkpt>
      <trkpt lat="53.3683183" lon="83.8307267">
        <ele>96.8</ele>
        <time>2026-06-19T11:32:11.537Z</time>
      </trkpt>
      <trkpt lat="53.3685533" lon="83.82983">
        <ele>107.8</ele>
        <time>2026-06-19T11:32:16.537Z</time>
      </trkpt>
      <trkpt lat="53.368815" lon="83.82884">
        <ele>106.2</ele>
        <time>2026-06-19T11:32:21.536Z</time>
      </trkpt>
      <trkpt lat="53.3690583" lon="83.827745">
        <ele>103.39999999999999</ele>
        <time>2026-06-19T11:32:26.544Z</time>
      </trkpt>
      <trkpt lat="53.3693483" lon="83.8266383">
        <ele>101.00000000000001</ele>
        <time>2026-06-19T11:32:31.537Z</time>
      </trkpt>
      <trkpt lat="53.3695567" lon="83.8255717">
        <ele>102.3</ele>
        <time>2026-06-19T11:32:36.535Z</time>
      </trkpt>
      <trkpt lat="53.369795" lon="83.8245667">
        <ele>105.00000000000001</ele>
        <time>2026-06-19T11:32:41.537Z</time>
      </trkpt>
      <trkpt lat="53.3700133" lon="83.8235683">
        <ele>107.39999999999999</ele>
        <time>2026-06-19T11:32:46.538Z</time>
      </trkpt>
      <trkpt lat="53.3701983" lon="83.822615">
        <ele>109.3</ele>
        <time>2026-06-19T11:32:51.536Z</time>
      </trkpt>
      <trkpt lat="53.370335" lon="83.82167">
        <ele>116.60000000000001</ele>
        <time>2026-06-19T11:32:56.537Z</time>
      </trkpt>
      <trkpt lat="53.37047" lon="83.82086">
        <ele>122.50000000000001</ele>
        <time>2026-06-19T11:33:01.537Z</time>
      </trkpt>
      <trkpt lat="53.370695" lon="83.8202917">
        <ele>124.50000000000001</ele>
        <time>2026-06-19T11:33:06.538Z</time>
      </trkpt>
      <trkpt lat="53.3708483" lon="83.8198167">
        <ele>120.2</ele>
        <time>2026-06-19T11:33:11.538Z</time>
      </trkpt>
      <trkpt lat="53.3709933" lon="83.8192667">
        <ele>116.7</ele>
        <time>2026-06-19T11:33:16.537Z</time>
      </trkpt>
      <trkpt lat="53.37113" lon="83.818635">
        <ele>115.89999999999999</ele>
        <time>2026-06-19T11:33:21.536Z</time>
      </trkpt>
      <trkpt lat="53.37128" lon="83.8179333">
        <ele>115.60000000000001</ele>
        <time>2026-06-19T11:33:26.538Z</time>
      </trkpt>
      <trkpt lat="53.3714183" lon="83.817205">
        <ele>116.3</ele>
        <time>2026-06-19T11:33:31.538Z</time>
      </trkpt>
      <trkpt lat="53.371555" lon="83.8165667">
        <ele>116.00000000000001</ele>
        <time>2026-06-19T11:33:36.537Z</time>
      </trkpt>
      <trkpt lat="53.3717083" lon="83.8158867">
        <ele>115.60000000000001</ele>
        <time>2026-06-19T11:33:41.537Z</time>
      </trkpt>
      <trkpt lat="53.3718917" lon="83.8151917">
        <ele>115.39999999999999</ele>
        <time>2026-06-19T11:33:46.538Z</time>
      </trkpt>
      <trkpt lat="53.3720717" lon="83.8144">
        <ele>115.2</ele>
        <time>2026-06-19T11:33:51.537Z</time>
      </trkpt>
      <trkpt lat="53.3722567" lon="83.81356">
        <ele>115.8</ele>
        <time>2026-06-19T11:33:56.538Z</time>
      </trkpt>
      <trkpt lat="53.37246" lon="83.8127217">
        <ele>116.60000000000001</ele>
        <time>2026-06-19T11:34:01.537Z</time>
      </trkpt>
      <trkpt lat="53.372645" lon="83.8119167">
        <ele>115.89999999999999</ele>
        <time>2026-06-19T11:34:06.537Z</time>
      </trkpt>
      <trkpt lat="53.372845" lon="83.81111">
        <ele>115.89999999999999</ele>
        <time>2026-06-19T11:34:11.538Z</time>
      </trkpt>
      <trkpt lat="53.37302" lon="83.8103067">
        <ele>115.8</ele>
        <time>2026-06-19T11:34:16.538Z</time>
      </trkpt>
      <trkpt lat="53.37316" lon="83.80957">
        <ele>115.60000000000001</ele>
        <time>2026-06-19T11:34:21.537Z</time>
      </trkpt>
      <trkpt lat="53.3732917" lon="83.8089567">
        <ele>115.2</ele>
        <time>2026-06-19T11:34:26.537Z</time>
      </trkpt>
      <trkpt lat="53.37335" lon="83.808645">
        <ele>114.3</ele>
        <time>2026-06-19T11:34:31.539Z</time>
      </trkpt>
      <trkpt lat="53.37335" lon="83.8084417">
        <ele>111.60000000000001</ele>
        <time>2026-06-19T11:34:36.537Z</time>
      </trkpt>
      <trkpt lat="53.3733567" lon="83.808175">
        <ele>109.7</ele>
        <time>2026-06-19T11:34:48.537Z</time>
      </trkpt>
      <trkpt lat="53.37339" lon="83.8079083">
        <ele>106.3</ele>
        <time>2026-06-19T11:35:03.537Z</time>
      </trkpt>
      <trkpt lat="53.3734067" lon="83.8077817">
        <ele>105.89999999999999</ele>
        <time>2026-06-19T11:35:12.538Z</time>
      </trkpt>
      <trkpt lat="53.3734417" lon="83.8076683">
        <ele>105.89999999999999</ele>
        <time>2026-06-19T11:35:17.537Z</time>
      </trkpt>
      <trkpt lat="53.3735333" lon="83.80743">
        <ele>106.89999999999999</ele>
        <time>2026-06-19T11:35:32.536Z</time>
      </trkpt>
      <trkpt lat="53.373605" lon="83.8072033">
        <ele>109.10000000000001</ele>
        <time>2026-06-19T11:35:55.536Z</time>
      </trkpt>
      <trkpt lat="53.3736417" lon="83.8069517">
        <ele>110.00000000000001</ele>
        <time>2026-06-19T11:36:00.536Z</time>
      </trkpt>
      <trkpt lat="53.373665" lon="83.80668">
        <ele>111.00000000000001</ele>
        <time>2026-06-19T11:36:05.537Z</time>
      </trkpt>
      <trkpt lat="53.3737167" lon="83.8063333">
        <ele>111.50000000000001</ele>
        <time>2026-06-19T11:36:10.537Z</time>
      </trkpt>
      <trkpt lat="53.3737667" lon="83.8059817">
        <ele>111.50000000000001</ele>
        <time>2026-06-19T11:36:15.536Z</time>
      </trkpt>
      <trkpt lat="53.3738333" lon="83.8057383">
        <ele>112.39999999999999</ele>
        <time>2026-06-19T11:36:20.537Z</time>
      </trkpt>
      <trkpt lat="53.37385" lon="83.8054683">
        <ele>112.39999999999999</ele>
        <time>2026-06-19T11:36:25.536Z</time>
      </trkpt>
      <trkpt lat="53.373875" lon="83.8051233">
        <ele>112.50000000000001</ele>
        <time>2026-06-19T11:36:30.537Z</time>
      </trkpt>
      <trkpt lat="53.3739167" lon="83.8047283">
        <ele>110.2</ele>
        <time>2026-06-19T11:36:35.537Z</time>
      </trkpt>
      <trkpt lat="53.37391" lon="83.8042367">
        <ele>109.89999999999999</ele>
        <time>2026-06-19T11:36:40.536Z</time>
      </trkpt>
      <trkpt lat="53.373875" lon="83.80375">
        <ele>110.00000000000001</ele>
        <time>2026-06-19T11:36:45.536Z</time>
      </trkpt>
      <trkpt lat="53.3738233" lon="83.80332">
        <ele>110.3</ele>
        <time>2026-06-19T11:36:50.537Z</time>
      </trkpt>
      <trkpt lat="53.3737417" lon="83.8029017">
        <ele>111.39999999999999</ele>
        <time>2026-06-19T11:36:55.536Z</time>
      </trkpt>
      <trkpt lat="53.3736283" lon="83.802375">
        <ele>112.89999999999999</ele>
        <time>2026-06-19T11:37:00.537Z</time>
      </trkpt>
      <trkpt lat="53.373525" lon="83.801915">
        <ele>114.39999999999999</ele>
        <time>2026-06-19T11:37:05.537Z</time>
      </trkpt>
      <trkpt lat="53.3734217" lon="83.801495">
        <ele>116.10000000000001</ele>
        <time>2026-06-19T11:37:10.537Z</time>
      </trkpt>
      <trkpt lat="53.37331" lon="83.8010517">
        <ele>117.3</ele>
        <time>2026-06-19T11:37:15.535Z</time>
      </trkpt>
      <trkpt lat="53.3732133" lon="83.8006117">
        <ele>117.00000000000001</ele>
        <time>2026-06-19T11:37:20.536Z</time>
      </trkpt>
      <trkpt lat="53.3731317" lon="83.8001183">
        <ele>116.3</ele>
        <time>2026-06-19T11:37:25.537Z</time>
      </trkpt>
      <trkpt lat="53.3730367" lon="83.7996517">
        <ele>119.39999999999999</ele>
        <time>2026-06-19T11:37:30.537Z</time>
      </trkpt>
      <trkpt lat="53.37296" lon="83.7992767">
        <ele>121.50000000000001</ele>
        <time>2026-06-19T11:37:35.537Z</time>
      </trkpt>
      <trkpt lat="53.37285" lon="83.799015">
        <ele>122.7</ele>
        <time>2026-06-19T11:37:40.537Z</time>
      </trkpt>
      <trkpt lat="53.3727883" lon="83.7987933">
        <ele>125.50000000000001</ele>
        <time>2026-06-19T11:37:45.537Z</time>
      </trkpt>
      <trkpt lat="53.3727383" lon="83.7985783">
        <ele>127.2</ele>
        <time>2026-06-19T11:37:50.536Z</time>
      </trkpt>
      <trkpt lat="53.3727133" lon="83.7983267">
        <ele>128.7</ele>
        <time>2026-06-19T11:37:55.537Z</time>
      </trkpt>
      <trkpt lat="53.3726617" lon="83.7979933">
        <ele>131.3</ele>
        <time>2026-06-19T11:38:00.536Z</time>
      </trkpt>
      <trkpt lat="53.37259" lon="83.7975933">
        <ele>133.0</ele>
        <time>2026-06-19T11:38:05.537Z</time>
      </trkpt>
      <trkpt lat="53.3725467" lon="83.797335">
        <ele>150.00001525878906</ele>
        <time>2026-06-19T11:38:10.538Z</time>
      </trkpt>
      <trkpt lat="53.3725233" lon="83.79721">
        <ele>150.00001525878906</ele>
        <time>2026-06-19T11:38:15.536Z</time>
      </trkpt>
      <trkpt lat="53.3725367" lon="83.7970617">
        <ele>150.00001525878906</ele>
        <time>2026-06-19T11:38:25.536Z</time>
      </trkpt>
      <trkpt lat="53.3724933" lon="83.796855">
        <ele>150.00001525878906</ele>
        <time>2026-06-19T11:38:30.537Z</time>
      </trkpt>
      <trkpt lat="53.3724483" lon="83.796725">
        <ele>150.00001525878906</ele>
        <time>2026-06-19T11:38:35.537Z</time>
      </trkpt>
      <trkpt lat="53.3723933" lon="83.7963683">
        <ele>150.00001525878906</ele>
        <time>2026-06-19T11:38:40.537Z</time>
      </trkpt>
      <trkpt lat="53.3724533" lon="83.796045">
        <ele>150.00001525878906</ele>
        <time>2026-06-19T11:38:46.541Z</time>
      </trkpt>
    </trkseg>
  </trk>
</gpx>